CSS (TIANHE)            
1 48274U 21035A   23274.31518371  .00046821  00000+0  49475-3 0  9995
2 48274  41.4734 230.0156 0008987 160.9073 199.2105 15.63319360138427
